NUSAT-48 (HENRIETTA LE*)
1 60498U 24149AG  26068.80506098  .00012988  00000+0  45212-3 0  9999
2 60498  97.3923 150.8264 0002754 263.3026  96.7901 15.29812597 86946
STARLINK-35708          
1 66277U 25247N   26068.61467776  .00015719  00000+0  54182-3 0  9999
2 66277  53.1579 191.6852 0000826 112.4942 247.6146 15.30194602 21072
